start=new Date('2023-04-01T00:00:00.000Z').valueOf();
sats=[{"MEAN_MOTION":"15.69928276","ECCENTRICITY":"0.00033360","GP_ID":"229195596","MEAN_ELEMENT_THEORY":"SGP4","ELEMENT_SET_NO":"999","EPOCH":"2023-03-31T11:15:04.153248","TIME_SYSTEM":"UTC","ARG_OF_PERICENTER":"274.4521","TLE_LINE2":"2 55773  70.0006  77.2863 0003336 274.4521  85.6294 15.69928276  5010","RCS_SIZE":"LARGE","CLASSIFICATION_TYPE":"U","PERIOD":"91.724","REF_FRAME":"TEME","TLE_LINE1":"1 55773U 23028AJ  23090.46879807  .00003094  00000-0  27487-4 0  9993","RA_OF_ASC_NODE":"77.2863","SITE":"AFWTR","MEAN_MOTION_DDOT":"0.0000000000000","BSTAR":"0.00002748700000","FILE":"3876101","SEMIMAJOR_AXIS":"6737.239","CENTER_NAME":"EARTH","MEAN_MOTION_DOT":"0.00003094","OBJECT_TYPE":"PAYLOAD","REV_AT_EPOCH":"501","PERIAPSIS":"356.857","LAUNCH_DATE":"2023-03-03","COUNTRY_CODE":"US","DECAY_DATE":null,"OBJECT_ID":"2023-028AJ","INCLINATION":"70.0006","OBJECT_NAME":"STARLINK-5833","MEAN_ANOMALY":"85.6294","EPHEMERIS_TYPE":"0","NORAD_CAT_ID":"55773","APOAPSIS":"361.352"},{"GP_ID":"229195853","ECCENTRICITY":"0.00026680","MEAN_ELEMENT_THEORY":"SGP4","MEAN_MOTION":"15.69924116","TLE_LINE2":"2 55774  70.0009  77.2868 0002668 278.3890  81.7003 15.69924116  5012","ARG_OF_PERICENTER":"278.3890","TIME_SYSTEM":"UTC","EPOCH":"2023-03-31T11:14:46.184640","ELEMENT_SET_NO":"999","CLASSIFICATION_TYPE":"U","PERIOD":"91.724","RCS_SIZE":"LARGE","RA_OF_ASC_NODE":"77.2868","SITE":"AFWTR","REF_FRAME":"TEME","TLE_LINE1":"1 55774U 23028AK  23090.46859010  .00005845  00000-0  50347-4 0  9995","CENTER_NAME":"EARTH","SEMIMAJOR_AXIS":"6737.251","MEAN_MOTION_DOT":"0.00005845","BSTAR":"0.00005034700000","MEAN_MOTION_DDOT":"0.0000000000000","FILE":"3876102","PERIAPSIS":"357.319","OBJECT_TYPE":"PAYLOAD","REV_AT_EPOCH":"501","OBJECT_ID":"2023-028AK","MEAN_ANOMALY":"81.7003","INCLINATION":"70.0009","EPHEMERIS_TYPE":"0","OBJECT_NAME":"STARLINK-5812","LAUNCH_DATE":"2023-03-03","COUNTRY_CODE":"US","DECAY_DATE":null,"NORAD_CAT_ID":"55774","APOAPSIS":"360.914"},{"RCS_SIZE":"LARGE","CLASSIFICATION_TYPE":"U","PERIOD":"91.725","REF_FRAME":"TEME","TLE_LINE1":"1 55775U 23028AL  23089.44891245 -.00008407  00000-0 -68275-4 0  9996","RA_OF_ASC_NODE":"80.1535","SITE":"AFWTR","MEAN_MOTION":"15.69908780","GP_ID":"229150457","ECCENTRICITY":"0.00024180","MEAN_ELEMENT_THEORY":"SGP4","TIME_SYSTEM":"UTC","ELEMENT_SET_NO":"999","EPOCH":"2023-03-30T10:46:26.035680","ARG_OF_PERICENTER":"280.4163","TLE_LINE2":"2 55775  70.0027  80.1535 0002418 280.4163  79.6760 15.69908780  4853","COUNTRY_CODE":"US","LAUNCH_DATE":"2023-03-03","DECAY_DATE":null,"OBJECT_ID":"2023-028AL","INCLINATION":"70.0027","OBJECT_NAME":"STARLINK-5809","MEAN_ANOMALY":"79.6760","EPHEMERIS_TYPE":"0","NORAD_CAT_ID":"55775","APOAPSIS":"360.789","BSTAR":"-0.00006827500000","MEAN_MOTION_DDOT":"0.0000000000000","FILE":"3875157","CENTER_NAME":"EARTH","SEMIMAJOR_AXIS":"6737.295","MEAN_MOTION_DOT":"-0.00008407","OBJECT_TYPE":"PAYLOAD","REV_AT_EPOCH":"485","PERIAPSIS":"357.531"},{"MEAN_MOTION":"15.69930923","MEAN_ELEMENT_THEORY":"SGP4","GP_ID":"229195623","ECCENTRICITY":"0.00031760","TIME_SYSTEM":"UTC","EPOCH":"2023-03-31T11:13:32.894976","ELEMENT_SET_NO":"999","ARG_OF_PERICENTER":"263.5630","TLE_LINE2":"2 55776  69.9994  77.2830 0003176 263.5630  96.5204 15.69930923  5027","RCS_SIZE":"LARGE","PERIOD":"91.724","CLASSIFICATION_TYPE":"U","TLE_LINE1":"1 55776U 23028AM  23090.46774184  .00002857  00000-0  25516-4 0  9995","REF_FRAME":"TEME","SITE":"AFWTR","RA_OF_ASC_NODE":"77.2830","FILE":"3876103","BSTAR":"0.00002551600000","MEAN_MOTION_DDOT":"0.0000000000000","MEAN_MOTION_DOT":"0.00002857","CENTER_NAME":"EARTH","SEMIMAJOR_AXIS":"6737.232","REV_AT_EPOCH":"502","OBJECT_TYPE":"PAYLOAD","PERIAPSIS":"356.957","DECAY_DATE":null,"COUNTRY_CODE":"US","LAUNCH_DATE":"2023-03-03","EPHEMERIS_TYPE":"0","INCLINATION":"69.9994","OBJECT_NAME":"STARLINK-5810","MEAN_ANOMALY":"96.5204","OBJECT_ID":"2023-028AM","APOAPSIS":"361.236","NORAD_CAT_ID":"55776"},{"TIME_SYSTEM":"UTC","EPOCH":"2023-03-30T10:46:07.997952","ELEMENT_SET_NO":"999","ARG_OF_PERICENTER":"261.5972","TLE_LINE2":"2 55777  70.0037  80.1514 0002573 261.5972  98.4932 15.69913504  4864","MEAN_MOTION":"15.69913504","MEAN_ELEMENT_THEORY":"SGP4","GP_ID":"229150452","ECCENTRICITY":"0.00025730","TLE_LINE1":"1 55777U 23028AN  23089.44870368 -.00001671  00000-0 -12143-4 0  9990","REF_FRAME":"TEME","SITE":"AFWTR","RA_OF_ASC_NODE":"80.1514","RCS_SIZE":"LARGE","PERIOD":"91.725","CLASSIFICATION_TYPE":"U","REV_AT_EPOCH":"486","OBJECT_TYPE":"PAYLOAD","PERIAPSIS":"357.413","FILE":"3875157","BSTAR":"-0.00001214300000","MEAN_MOTION_DDOT":"0.0000000000000","MEAN_MOTION_DOT":"-0.00001671","CENTER_NAME":"EARTH","SEMIMAJOR_AXIS":"6737.281","APOAPSIS":"360.880","NORAD_CAT_ID":"55777","DECAY_DATE":null,"LAUNCH_DATE":"2023-03-03","COUNTRY_CODE":"US","OBJECT_NAME":"STARLINK-5814","INCLINATION":"70.0037","MEAN_ANOMALY":"98.4932","EPHEMERIS_TYPE":"0","OBJECT_ID":"2023-028AN"},{"ECCENTRICITY":"0.00025000","GP_ID":"229186484","MEAN_ELEMENT_THEORY":"SGP4","MEAN_MOTION":"15.69913802","TLE_LINE2":"2 55778  70.0023  80.1526 0002500 258.3076 101.7839 15.69913802  4867","ARG_OF_PERICENTER":"258.3076","TIME_SYSTEM":"UTC","ELEMENT_SET_NO":"999","EPOCH":"2023-03-30T10:45:58.832640","CLASSIFICATION_TYPE":"U","PERIOD":"91.725","RCS_SIZE":"LARGE","RA_OF_ASC_NODE":"80.1526","SITE":"AFWTR","REF_FRAME":"TEME","TLE_LINE1":"1 55778U 23028AP  23089.44859760 -.00003552  00000-0 -27807-4 0  9997","CENTER_NAME":"EARTH","SEMIMAJOR_AXIS":"6737.281","MEAN_MOTION_DOT":"-0.00003552","BSTAR":"-0.00002780700000","MEAN_MOTION_DDOT":"0.0000000000000","FILE":"3875726","PERIAPSIS":"357.461","OBJECT_TYPE":"PAYLOAD","REV_AT_EPOCH":"486","OBJECT_ID":"2023-028AP","INCLINATION":"70.0023","MEAN_ANOMALY":"101.7839","OBJECT_NAME":"STARLINK-5816","EPHEMERIS_TYPE":"0","COUNTRY_CODE":"US","LAUNCH_DATE":"2023-03-03","DECAY_DATE":null,"NORAD_CAT_ID":"55778","APOAPSIS":"360.830"},{"OBJECT_ID":"2023-028AQ","MEAN_ANOMALY":"90.6163","INCLINATION":"70.0004","EPHEMERIS_TYPE":"0","OBJECT_NAME":"STARLINK-5817","COUNTRY_CODE":"US","LAUNCH_DATE":"2023-03-03","DECAY_DATE":null,"NORAD_CAT_ID":"55779","APOAPSIS":"361.322","SEMIMAJOR_AXIS":"6737.245","CENTER_NAME":"EARTH","MEAN_MOTION_DOT":"0.00003190","MEAN_MOTION_DDOT":"0.0000000000000","BSTAR":"0.00002828700000","FILE":"3876103","PERIAPSIS":"356.898","OBJECT_TYPE":"PAYLOAD","REV_AT_EPOCH":"502","CLASSIFICATION_TYPE":"U","PERIOD":"91.724","RCS_SIZE":"LARGE","RA_OF_ASC_NODE":"77.1787","SITE":"AFWTR","REF_FRAME":"TEME","TLE_LINE1":"1 55779U 23028AQ  23090.44059291  .00003190  00000-0  28287-4 0  9990","ECCENTRICITY":"0.00032830","GP_ID":"229195629","MEAN_ELEMENT_THEORY":"SGP4","MEAN_MOTION":"15.69926185","ARG_OF_PERICENTER":"269.4657","TLE_LINE2":"2 55779  70.0004  77.1787 0003283 269.4657  90.6163 15.69926185  5022","ELEMENT_SET_NO":"999","EPOCH":"2023-03-31T10:34:27.227424","TIME_SYSTEM":"UTC"},{"ARG_OF_PERICENTER":"294.3995","TLE_LINE2":"2 55780  70.0019  77.2838 0002756 294.3995  65.6913 15.69925657  5022","ELEMENT_SET_NO":"999","EPOCH":"2023-03-31T11:13:51.251520","TIME_SYSTEM":"UTC","GP_ID":"229195627","ECCENTRICITY":"0.00027560","MEAN_ELEMENT_THEORY":"SGP4","MEAN_MOTION":"15.69925657","RA_OF_ASC_NODE":"77.2838","SITE":"AFWTR","REF_FRAME":"TEME","TLE_LINE1":"1 55780U 23028AR  23090.46795430 -.00002835  00000-0 -21817-4 0  9995","CLASSIFICATION_TYPE":"U","PERIOD":"91.724","RCS_SIZE":"LARGE","PERIAPSIS":"357.255","OBJECT_TYPE":"PAYLOAD","REV_AT_EPOCH":"502","SEMIMAJOR_AXIS":"6737.247","CENTER_NAME":"EARTH","MEAN_MOTION_DOT":"-0.00002835","MEAN_MOTION_DDOT":"0.0000000000000","BSTAR":"-0.00002181700000","FILE":"3876103","NORAD_CAT_ID":"55780","APOAPSIS":"360.968","OBJECT_ID":"2023-028AR","INCLINATION":"70.0019","OBJECT_NAME":"STARLINK-5819","MEAN_ANOMALY":"65.6913","EPHEMERIS_TYPE":"0","COUNTRY_CODE":"US","LAUNCH_DATE":"2023-03-03","DECAY_DATE":null},{"COUNTRY_CODE":"US","LAUNCH_DATE":"2023-03-03","DECAY_DATE":null,"OBJECT_ID":"2023-028AS","INCLINATION":"70.0010","OBJECT_NAME":"STARLINK-5820","EPHEMERIS_TYPE":"0","MEAN_ANOMALY":"93.2955","NORAD_CAT_ID":"55781","APOAPSIS":"361.109","BSTAR":"0.00002532300000","MEAN_MOTION_DDOT":"0.0000000000000","FILE":"3876105","CENTER_NAME":"EARTH","SEMIMAJOR_AXIS":"6737.242","MEAN_MOTION_DOT":"0.00002834","OBJECT_TYPE":"PAYLOAD","REV_AT_EPOCH":"502","PERIAPSIS":"357.105","RCS_SIZE":"LARGE","CLASSIFICATION_TYPE":"U","PERIOD":"91.724","REF_FRAME":"TEME","TLE_LINE1":"1 55781U 23028AS  23090.46785209  .00002834  00000-0  25323-4 0  9992","RA_OF_ASC_NODE":"77.2831","SITE":"AFWTR","MEAN_MOTION":"15.69927290","GP_ID":"229195634","ECCENTRICITY":"0.00029710","MEAN_ELEMENT_THEORY":"SGP4","TIME_SYSTEM":"UTC","ELEMENT_SET_NO":"999","EPOCH":"2023-03-31T11:13:42.420576","TLE_LINE2":"2 55781  70.0010  77.2831 0002971 266.7901  93.2955 15.69927290  5024","ARG_OF_PERICENTER":"266.7901"},{"RCS_SIZE":"LARGE","CLASSIFICATION_TYPE":"U","PERIOD":"91.723","REF_FRAME":"TEME","TLE_LINE1":"1 55782U 23028AT  23090.46763792  .00017256  00000-0  14490-3 0  9992","RA_OF_ASC_NODE":"77.2828","SITE":"AFWTR","MEAN_MOTION":"15.69937885","ECCENTRICITY":"0.00032530","GP_ID":"229195871","MEAN_ELEMENT_THEORY":"SGP4","TIME_SYSTEM":"UTC","EPOCH":"2023-03-31T11:13:23.916288","ELEMENT_SET_NO":"999","ARG_OF_PERICENTER":"278.7375","TLE_LINE2":"2 55782  70.0007  77.2828 0003253 278.7375  81.3452 15.69937885  5020","COUNTRY_CODE":"US","LAUNCH_DATE":"2023-03-03","DECAY_DATE":null,"OBJECT_ID":"2023-028AT","INCLINATION":"70.0007","EPHEMERIS_TYPE":"0","OBJECT_NAME":"STARLINK-5826","MEAN_ANOMALY":"81.3452","NORAD_CAT_ID":"55782","APOAPSIS":"361.268","BSTAR":"0.00014490000000","MEAN_MOTION_DDOT":"0.0000000000000","FILE":"3876105","CENTER_NAME":"EARTH","SEMIMAJOR_AXIS":"6737.212","MEAN_MOTION_DOT":"0.00017256","OBJECT_TYPE":"PAYLOAD","REV_AT_EPOCH":"502","PERIAPSIS":"356.885"}];
